ONEWEB-0377             
1 49303U 21090AA  24087.88215081  .00000033  00000+0  48141-4 0  9992
2 49303  87.9142  75.8754 0002010  94.9200 265.2163 13.20772624124708
ONEWEB-0378             
1 49304U 21090AB  24087.53067316  .00000046  00000+0  79319-4 0  9996
2 49304  87.9143  75.9495 0002142  79.8615 280.2760 13.22313202122647
ONEWEB-0379             
1 49305U 21090AC  24087.54614399  .00000122  00000+0  29482-3 0  9997
2 49305  87.8892  91.2278 0001923  85.3697 274.7652 13.14499099120934
ONEWEB-0380             
1 49306U 21090AD  24087.56637026  .00000016  00000+0  63697-5 0  9992
2 49306  87.9102 106.5247 0001974  94.7544 265.3814 13.19724699120654
ONEWEB-0381             
1 49307U 21090AE  24087.57580909  .00000012  00000+0 -29464-5 0  9992
2 49307  87.9143  75.9430 0002000  89.3126 270.8237 13.20773940122691
ONEWEB-0382             
1 49308U 21090AF  24087.71469861 -.00000002  00000+0 -36726-4 0  9990
2 49308  87.9142  75.9128 0002410  80.4289 279.7116 13.20774168124017
ONEWEB-0383             
1 49309U 21090AG  24087.76817536  .00000249  00000+0  63602-3 0  9995
2 49309  87.8890  91.1736 0002047  82.3629 277.7733 13.14503076122288
ONEWEB-0384             
1 49310U 21090AH  24087.48427193  .00000028  00000+0  37474-4 0  9996
2 49310  87.9142  75.9689 0002509  79.7785 280.3632 13.20773992122689
